[{"OBJECT_NAME":"YAM-7","OBJECT_ID":"2024-149AN","EPOCH":"2026-03-09T17:13:55.117920","MEAN_MOTION":15.30304554,"ECCENTRICITY":0.00019733,"INCLINATION":97.3828,"RA_OF_ASC_NODE":149.4631,"ARG_OF_PERICENTER":296.5121,"MEAN_ANOMALY":63.5918,"EPHEMERIS_TYPE":0,"CLASSIFICATION_TYPE":"U","NORAD_CAT_ID":60504,"ELEMENT_SET_NO":999,"REV_AT_EPOCH":8683,"BSTAR":0.00030984439,"MEAN_MOTION_DOT":9.009e-5,"MEAN_MOTION_DDOT":0},{"OBJECT_NAME":"STARLINK-35222","OBJECT_ID":"2025-212B","EPOCH":"2026-03-09T22:42:07.468128","MEAN_MOTION":15.30211233,"ECCENTRICITY":0.00015061,"INCLINATION":53.1604,"RA_OF_ASC_NODE":344.4249,"ARG_OF_PERICENTER":66.5759,"MEAN_ANOMALY":293.54,"EPHEMERIS_TYPE":0,"CLASSIFICATION_TYPE":"U","NORAD_CAT_ID":65677,"ELEMENT_SET_NO":999,"REV_AT_EPOCH":2729,"BSTAR":0.00083331215,"MEAN_MOTION_DOT":0.00024411,"MEAN_MOTION_DDOT":0}]
